start=new Date('2022-03-15T00:00:00.000Z').valueOf();
sats=[{"ELEMENT_SET_NO":"999","MEAN_ELEMENT_THEORY":"SGP4","PERIAPSIS":"546.004","OBJECT_TYPE":"PAYLOAD","TLE_LINE2":"2 44941  53.0564  23.4635 0001698  51.2838 308.8303 15.06410961120653","GP_ID":"198731287","OBJECT_NAME":"STARLINK-1094","COUNTRY_CODE":"US","ECCENTRICITY":"0.00016980","REF_FRAME":"TEME","APOAPSIS":"548.356","NORAD_CAT_ID":"44941","BSTAR":"0.00005819400000","FILE":"3359259","MEAN_ANOMALY":"308.8303","CENTER_NAME":"EARTH","EPHEMERIS_TYPE":"0","EPOCH":"2022-03-14T13:18:15.203232","REV_AT_EPOCH":"12065","PERIOD":"95.591","SITE":"AFETR","MEAN_MOTION_DDOT":"0.0000000000000","OBJECT_ID":"2020-001AD","RA_OF_ASC_NODE":"23.4635","TIME_SYSTEM":"UTC","RCS_SIZE":"LARGE","MEAN_MOTION_DOT":"0.00000586","MEAN_MOTION":"15.06410961","SEMIMAJOR_AXIS":"6925.315","TLE_LINE1":"1 44941U 20001AD  22073.55434263  .00000586  00000-0  58194-4 0  9991","DECAY_DATE":null,"ARG_OF_PERICENTER":"51.2838","LAUNCH_DATE":"2020-01-07","CLASSIFICATION_TYPE":"U","INCLINATION":"53.0564"},{"SEMIMAJOR_AXIS":"6925.355","DECAY_DATE":null,"TLE_LINE1":"1 44942U 20001AE  22073.14152513 -.00001604  00000-0 -88830-4 0  9996","ARG_OF_PERICENTER":"67.3007","CLASSIFICATION_TYPE":"U","LAUNCH_DATE":"2020-01-07","INCLINATION":"53.0559","RCS_SIZE":"LARGE","MEAN_MOTION_DOT":"-0.00001604","MEAN_MOTION":"15.06397747","PERIOD":"95.592","SITE":"AFETR","MEAN_MOTION_DDOT":"0.0000000000000","OBJECT_ID":"2020-001AE","RA_OF_ASC_NODE":"25.3132","TIME_SYSTEM":"UTC","REV_AT_EPOCH":"12059","EPOCH":"2022-03-14T03:23:47.771232","BSTAR":"-0.00008883000000","FILE":"3359259","MEAN_ANOMALY":"292.8176","CENTER_NAME":"EARTH","EPHEMERIS_TYPE":"0","COUNTRY_CODE":"US","ECCENTRICITY":"0.00018290","REF_FRAME":"TEME","APOAPSIS":"548.487","NORAD_CAT_ID":"44942","OBJECT_TYPE":"PAYLOAD","TLE_LINE2":"2 44942  53.0559  25.3132 0001829  67.3007 292.8176 15.06397747120592","GP_ID":"198732039","OBJECT_NAME":"STARLINK-1096","ELEMENT_SET_NO":"999","MEAN_ELEMENT_THEORY":"SGP4","PERIAPSIS":"545.954"},{"NORAD_CAT_ID":"44943","APOAPSIS":"548.323","REF_FRAME":"TEME","COUNTRY_CODE":"US","ECCENTRICITY":"0.00017230","EPHEMERIS_TYPE":"0","MEAN_ANOMALY":"294.8218","CENTER_NAME":"EARTH","FILE":"3359259","BSTAR":"0.00131070000000","MEAN_ELEMENT_THEORY":"SGP4","PERIAPSIS":"545.937","ELEMENT_SET_NO":"999","OBJECT_NAME":"STARLINK-1100","GP_ID":"198732788","TLE_LINE2":"2 44943  53.0545  23.3336 0001723  65.2950 294.8218 15.06427192120653","OBJECT_TYPE":"PAYLOAD","MEAN_MOTION":"15.06427192","RCS_SIZE":"LARGE","MEAN_MOTION_DOT":"0.00019310","INCLINATION":"53.0545","LAUNCH_DATE":"2020-01-07","CLASSIFICATION_TYPE":"U","ARG_OF_PERICENTER":"65.2950","DECAY_DATE":null,"TLE_LINE1":"1 44943U 20001AF  22073.58382623  .00019310  00000-0  13107-2 0  9996","SEMIMAJOR_AXIS":"6925.265","EPOCH":"2022-03-14T14:00:42.586272","REV_AT_EPOCH":"12065","TIME_SYSTEM":"UTC","RA_OF_ASC_NODE":"23.3336","SITE":"AFETR","MEAN_MOTION_DDOT":"0.0000000000000","OBJECT_ID":"2020-001AF","PERIOD":"95.590"},{"RCS_SIZE":"LARGE","MEAN_MOTION_DOT":"0.00006860","MEAN_MOTION":"15.06410001","ARG_OF_PERICENTER":"57.7533","TLE_LINE1":"1 44944U 20001AG  22073.23366428  .00006860  00000-0  47883-3 0  9999","DECAY_DATE":null,"SEMIMAJOR_AXIS":"6925.318","INCLINATION":"53.0552","CLASSIFICATION_TYPE":"U","LAUNCH_DATE":"2020-01-07","REV_AT_EPOCH":"12060","EPOCH":"2022-03-14T05:36:28.593792","PERIOD":"95.592","TIME_SYSTEM":"UTC","RA_OF_ASC_NODE":"24.9021","SITE":"AFETR","MEAN_MOTION_DDOT":"0.0000000000000","OBJECT_ID":"2020-001AG","REF_FRAME":"TEME","ECCENTRICITY":"0.00016300","COUNTRY_CODE":"US","NORAD_CAT_ID":"44944","APOAPSIS":"548.312","MEAN_ANOMALY":"302.3614","CENTER_NAME":"EARTH","FILE":"3359259","BSTAR":"0.00047883000000","EPHEMERIS_TYPE":"0","MEAN_ELEMENT_THEORY":"SGP4","PERIAPSIS":"546.054","ELEMENT_SET_NO":"999","TLE_LINE2":"2 44944  53.0552  24.9021 0001630  57.7533 302.3614 15.06410001120601","OBJECT_TYPE":"PAYLOAD","OBJECT_NAME":"STARLINK-1108","GP_ID":"198731537"},{"PERIOD":"95.592","SITE":"AFETR","MEAN_MOTION_DDOT":"0.0000000000000","OBJECT_ID":"2020-001AH","TIME_SYSTEM":"UTC","RA_OF_ASC_NODE":"23.2743","EPOCH":"2022-03-14T14:16:39.083520","REV_AT_EPOCH":"12065","SEMIMAJOR_AXIS":"6925.359","ARG_OF_PERICENTER":"61.3063","TLE_LINE1":"1 44945U 20001AH  22073.59489680  .00009225  00000-0  63744-3 0  9997","DECAY_DATE":null,"INCLINATION":"53.0548","CLASSIFICATION_TYPE":"U","LAUNCH_DATE":"2020-01-07","MEAN_MOTION_DOT":"0.00009225","RCS_SIZE":"LARGE","MEAN_MOTION":"15.06396529","OBJECT_TYPE":"PAYLOAD","TLE_LINE2":"2 44945  53.0548  23.2743 0001790  61.3063 298.8105 15.06396529120653","GP_ID":"198731787","OBJECT_NAME":"STARLINK-1109","ELEMENT_SET_NO":"999","PERIAPSIS":"545.985","MEAN_ELEMENT_THEORY":"SGP4","FILE":"3359259","BSTAR":"0.00063744000000","MEAN_ANOMALY":"298.8105","CENTER_NAME":"EARTH","EPHEMERIS_TYPE":"0","COUNTRY_CODE":"US","ECCENTRICITY":"0.00017900","REF_FRAME":"TEME","NORAD_CAT_ID":"44945","APOAPSIS":"548.464"},{"TLE_LINE2":"2 44946  53.0061  16.1846 0000520  60.1157 299.9884 15.10715556120724","OBJECT_TYPE":"PAYLOAD","OBJECT_NAME":"STARLINK-1110","GP_ID":"198742312","MEAN_ELEMENT_THEORY":"SGP4","PERIAPSIS":"533.659","ELEMENT_SET_NO":"999","CENTER_NAME":"EARTH","MEAN_ANOMALY":"299.9884","FILE":"3359453","BSTAR":"0.00133180000000","EPHEMERIS_TYPE":"0","REF_FRAME":"TEME","COUNTRY_CODE":"US","ECCENTRICITY":"0.00005200","NORAD_CAT_ID":"44946","APOAPSIS":"534.378","PERIOD":"95.319","TIME_SYSTEM":"UTC","RA_OF_ASC_NODE":"16.1846","SITE":"AFETR","MEAN_MOTION_DDOT":"0.0000000000000","OBJECT_ID":"2020-001AJ","REV_AT_EPOCH":"12072","EPOCH":"2022-03-14T12:44:39.493824","ARG_OF_PERICENTER":"60.1157","TLE_LINE1":"1 44946U 20001AJ  22073.53101266  .00022097  00000-0  13318-2 0  9996","DECAY_DATE":null,"SEMIMAJOR_AXIS":"6912.153","INCLINATION":"53.0061","LAUNCH_DATE":"2020-01-07","CLASSIFICATION_TYPE":"U","MEAN_MOTION_DOT":"0.00022097","RCS_SIZE":"LARGE","MEAN_MOTION":"15.10715556"},{"MEAN_MOTION":"15.06407680","RCS_SIZE":"LARGE","MEAN_MOTION_DOT":"-0.00000592","CLASSIFICATION_TYPE":"U","LAUNCH_DATE":"2020-01-07","INCLINATION":"53.0559","SEMIMAJOR_AXIS":"6925.325","TLE_LINE1":"1 44947U 20001AK  22073.55065334 -.00000592  00000-0 -20800-4 0  9998","DECAY_DATE":null,"ARG_OF_PERICENTER":"50.0420","REV_AT_EPOCH":"12065","EPOCH":"2022-03-14T13:12:56.448576","SITE":"AFETR","MEAN_MOTION_DDOT":"0.0000000000000","OBJECT_ID":"2020-001AK","RA_OF_ASC_NODE":"23.4703","TIME_SYSTEM":"UTC","PERIOD":"95.592","APOAPSIS":"548.468","NORAD_CAT_ID":"44947","ECCENTRICITY":"0.00018450","COUNTRY_CODE":"US","REF_FRAME":"TEME","EPHEMERIS_TYPE":"0","BSTAR":"-0.00002080000000","FILE":"3359259","CENTER_NAME":"EARTH","MEAN_ANOMALY":"310.0730","ELEMENT_SET_NO":"999","PERIAPSIS":"545.912","MEAN_ELEMENT_THEORY":"SGP4","GP_ID":"198732289","OBJECT_NAME":"STARLINK-1116","OBJECT_TYPE":"PAYLOAD","TLE_LINE2":"2 44947  53.0559  23.4703 0001845  50.0420 310.0730 15.06407680120650"},{"INCLINATION":"53.0553","LAUNCH_DATE":"2020-01-07","CLASSIFICATION_TYPE":"U","ARG_OF_PERICENTER":"57.9098","DECAY_DATE":null,"TLE_LINE1":"1 44949U 20001AM  22073.24473239 -.00002623  00000-0 -15730-3 0  9995","SEMIMAJOR_AXIS":"6925.365","MEAN_MOTION":"15.06394557","RCS_SIZE":"LARGE","MEAN_MOTION_DOT":"-0.00002623","TIME_SYSTEM":"UTC","RA_OF_ASC_NODE":"24.8573","MEAN_MOTION_DDOT":"0.0000000000000","SITE":"AFETR","OBJECT_ID":"2020-001AM","PERIOD":"95.592","EPOCH":"2022-03-14T05:52:24.878496","REV_AT_EPOCH":"12060","EPHEMERIS_TYPE":"0","CENTER_NAME":"EARTH","MEAN_ANOMALY":"302.2046","FILE":"3359259","BSTAR":"-0.00015730000000","NORAD_CAT_ID":"44949","APOAPSIS":"548.336","REF_FRAME":"TEME","COUNTRY_CODE":"US","ECCENTRICITY":"0.00015960","OBJECT_NAME":"STARLINK-1122","GP_ID":"198731038","TLE_LINE2":"2 44949  53.0553  24.8573 0001596  57.9098 302.2046 15.06394557120602","OBJECT_TYPE":"PAYLOAD","PERIAPSIS":"546.125","MEAN_ELEMENT_THEORY":"SGP4","ELEMENT_SET_NO":"999"},{"PERIOD":"95.586","RA_OF_ASC_NODE":"23.2934","TIME_SYSTEM":"UTC","SITE":"AFETR","MEAN_MOTION_DDOT":"0.0000000000000","OBJECT_ID":"2020-001AN","REV_AT_EPOCH":"12065","EPOCH":"2022-03-14T14:11:12.660000","TLE_LINE1":"1 44950U 20001AN  22073.59111875  .00020388  00000-0  13802-2 0  9993","DECAY_DATE":null,"ARG_OF_PERICENTER":"65.3415","SEMIMAJOR_AXIS":"6925.064","LAUNCH_DATE":"2020-01-07","CLASSIFICATION_TYPE":"U","INCLINATION":"53.0540","RCS_SIZE":"LARGE","MEAN_MOTION_DOT":"0.00020388","MEAN_MOTION":"15.06492973","TLE_LINE2":"2 44950  53.0540  23.2934 0001812  65.3415 294.7762 15.06492973120657","OBJECT_TYPE":"PAYLOAD","OBJECT_NAME":"STARLINK-1125","GP_ID":"198742349","PERIAPSIS":"545.674","MEAN_ELEMENT_THEORY":"SGP4","ELEMENT_SET_NO":"999","CENTER_NAME":"EARTH","MEAN_ANOMALY":"294.7762","BSTAR":"0.00138020000000","FILE":"3359455","EPHEMERIS_TYPE":"0","REF_FRAME":"TEME","COUNTRY_CODE":"US","ECCENTRICITY":"0.00018120","APOAPSIS":"548.183","NORAD_CAT_ID":"44950"},{"EPHEMERIS_TYPE":"0","CENTER_NAME":"EARTH","MEAN_ANOMALY":"287.0501","BSTAR":"0.00136070000000","FILE":"3359665","APOAPSIS":"534.760","NORAD_CAT_ID":"44951","REF_FRAME":"TEME","COUNTRY_CODE":"US","ECCENTRICITY":"0.00003180","OBJECT_NAME":"STARLINK-1126","GP_ID":"198765507","TLE_LINE2":"2 44951  53.0048  17.4061 0000318  73.0524 287.0501 15.10544498121982","OBJECT_TYPE":"PAYLOAD","PERIAPSIS":"534.320","MEAN_ELEMENT_THEORY":"SGP4","ELEMENT_SET_NO":"999","LAUNCH_DATE":"2020-01-07","CLASSIFICATION_TYPE":"U","INCLINATION":"53.0048","DECAY_DATE":null,"TLE_LINE1":"1 44951U 20001AP  22073.41220087  .00022477  00000-0  13607-2 0  9995","ARG_OF_PERICENTER":"73.0524","SEMIMAJOR_AXIS":"6912.675","MEAN_MOTION":"15.10544498","MEAN_MOTION_DOT":"0.00022477","RCS_SIZE":"LARGE","RA_OF_ASC_NODE":"17.4061","TIME_SYSTEM":"UTC","SITE":"AFETR","MEAN_MOTION_DDOT":"0.0000000000000","OBJECT_ID":"2020-001AP","PERIOD":"95.330","REV_AT_EPOCH":"12198","EPOCH":"2022-03-14T09:53:34.155168"}];
